OBJECT_NAME,OBJECT_ID,EPOCH,MEAN_MOTION,ECCENTRICITY,INCLINATION,RA_OF_ASC_NODE,ARG_OF_PERICENTER,MEAN_ANOMALY,EPHEMERIS_TYPE,CLASSIFICATION_TYPE,NORAD_CAT_ID,ELEMENT_SET_NO,REV_AT_EPOCH,BSTAR,MEAN_MOTION_DOT,MEAN_MOTION_DDOT
PERSEUS-M1,2014-033AF,2026-06-27T19:22:36.624576,14.95667456,.00098289,97.9649,123.1137,261.3873,98.6234,0,U,40039,999,65222,.16069724E-3,.1727E-4,0
POLYITAN-1,2014-033AJ,2026-06-27T21:13:50.678112,15.33627611,.00088389,98.0940,206.1596,112.4852,247.7325,0,U,40042,999,65523,.59170273E-3,.19197E-3,0
TIGRISAT,2014-033AK,2026-06-27T21:29:35.346336,14.85199092,.00500475,97.7842,328.6625,40.8711,319.6239,0,U,40043,999,64721,.21051099E-3,.1789E-4,0
AEROCUBE 6A,2014-033AM,2026-06-27T17:02:23.950752,14.98194120,.00381215,97.7225,345.5484,341.3669,18.6155,0,U,40045,999,64819,.37300714E-3,.4432E-4,0
AEROCUBE 6B,2014-033AN,2026-06-27T16:50:59.830368,14.99658257,.00377075,97.7223,345.3541,332.4470,27.4753,0,U,40046,999,64833,.36081147E-3,.4452E-4,0
CANX-4,2014-034C,2026-06-27T21:25:00.340320,14.81282775,.00123472,98.3109,54.5978,342.9088,17.1706,0,U,40055,999,64611,.12176428E-3,.893E-5,0
CANX-5,2014-034D,2026-06-27T21:22:34.191264,14.81300102,.00123464,98.3112,54.6403,343.1631,16.9169,0,U,40056,999,63692,.1224078E-3,.898E-5,0
UKUBE-1,2014-037F,2026-06-27T19:28:37.322112,15.13712856,.00031571,98.4235,183.2006,115.2470,244.9086,0,U,40074,999,65016,.45427417E-3,.8107E-4,0
BRITE-PL2 (HEWELIUSZ),2014-049B,2026-06-27T21:13:04.613952,14.94632612,.00153112,97.9108,290.9670,75.8215,284.4705,0,U,40119,999,64304,.15402166E-3,.1612E-4,0
AEROCUBE 5C,2015-058B,2026-06-27T11:55:26.573376,14.91493336,.01312695,64.7663,230.5167,59.2481,302.1481,0,U,40965,999,36719,.19165865E-3,.2089E-4,0
AEROCUBE 7,2015-058C,2026-06-27T19:09:04.856832,14.95784228,.01210011,64.7606,211.5791,57.4877,303.7861,0,U,40966,999,36754,.26368155E-3,.3235E-4,0
FOX-1A (AO-85),2015-058D,2026-06-27T21:11:42.785376,14.91012568,.0131104,64.7747,245.7432,52.4287,308.8647,0,U,40967,999,11516,.18842548E-3,.2022E-4,0
SINOD-D 1,2015-058E,2026-06-27T20:11:45.566304,14.95964267,.01197626,64.7737,225.5462,48.8741,312.2636,0,U,40968,999,11825,.25041891E-3,.3069E-4,0
SNAP-3 ALICE,2015-058G,2026-06-27T22:25:42.267936,15.62838686,.00244411,64.7504,66.7138,4.5324,355.6040,0,U,40970,999,11856,.15684915E-2,.14684E-2,0
LMRST-SAT,2015-058H,2026-06-27T21:47:54.104640,14.90629802,.01327097,64.7753,242.0236,54.4415,306.8983,0,U,40971,999,11515,.18024884E-3,.1913E-4,0
SNAP-3 EDDIE,2015-058J,2026-06-27T20:26:57.973632,15.63968024,.00251362,64.7419,57.6443,8.0537,352.1009,0,U,40972,999,12069,.13293362E-2,.129925E-2,0
PROPCUBE 3,2015-058K,2026-06-27T12:22:58.433376,14.94306371,.01246199,64.7670,220.2636,55.8399,305.4457,0,U,40973,999,11634,.23247025E-3,.2738E-4,0
BISONSAT,2015-058L,2026-06-27T21:58:25.086432,15.16461707,.0080301,64.7571,138.9510,42.9311,317.8043,0,U,40974,999,11724,.72076195E-3,.15128E-3,0
SNAP-3 JIMI,2015-058M,2026-06-27T08:58:30.882720,15.02391842,.0106706,64.7629,187.5396,51.2733,309.7864,0,U,40975,999,11575,.42413997E-3,.6192E-4,0
PROPCUBE 1 (FLORA),2015-058N,2026-06-27T22:33:52.015968,14.89264259,.01313472,64.7748,261.9087,56.7296,304.6319,0,U,40976,999,11786,.18747071E-3,.1915E-4,0
SINOD-D 3,2015-058P,2026-06-27T21:12:54.516384,14.94072286,.01198743,64.7719,242.4155,53.8963,307.3178,0,U,40977,999,11635,.23340895E-3,.27E-4,0
HORYU-4,2016-012D,2026-06-27T21:41:27.796416,16.10615063,.0009316,30.9819,359.6428,334.8747,25.1465,0,U,41340,999,57253,.11543734E-2,.1197626E-1,.86951712E-3
RAVAN,2016-067B,2026-06-27T15:51:08.434656,15.55697713,.00024869,97.9876,69.4492,353.7027,6.4194,0,U,41849,999,52932,.7251591E-3,.50007E-3,0
CELTEE 1,2016-067C,2026-06-27T20:57:59.530752,15.19782402,.00015366,98.0664,46.1697,128.1826,231.9546,0,U,41850,999,52750,.23454388E-3,.4942E-4,0
OPTICUBE 04,2016-067D,2026-06-27T13:14:10.611744,15.09700786,.00169904,98.0691,31.3758,83.4505,276.8657,0,U,41851,999,52673,.15727403E-3,.2471E-4,0
AEROCUBE 8D,2016-067E,2026-06-27T14:12:35.843328,15.24537080,.00050196,98.0675,49.5552,98.5872,261.5933,0,U,41852,999,52765,.30859578E-3,.7517E-4,0
AEROCUBE 8C,2016-067F,2026-06-27T13:11:37.020192,15.24787957,.00060087,98.0546,46.7236,40.3988,319.7693,0,U,41853,999,52764,.28863889E-3,.7079E-4,0
CORVUS BC2,2017-042X,2026-06-27T16:34:25.250592,15.06358816,.0014617,97.4068,339.6328,78.2935,281.9932,0,U,42846,999,48864,.18085881E-3,.2608E-4,0
CORVUS BC1,2017-042Y,2026-06-27T16:24:59.337504,15.06521528,.00129829,97.4094,340.4473,57.0269,303.2205,0,U,42847,999,48867,.1954586E-3,.2834E-4,0
MAKERSAT 0,2017-073D,2026-06-27T04:07:21.244224,15.32414292,.01047959,97.4619,60.7702,236.8226,122.2932,0,U,43016,999,46799,.50687114E-3,.18824E-3,0
