PERSEUS-M1              
1 40039U 14033AF  26178.80736834  .00001727  00000+0  16070-3 0  9993
2 40039  97.9649 123.1137 0009828 261.3873  98.6234 14.95667456652229
POLYITAN-1              
1 40042U 14033AJ  26178.88461433  .00019197  00000+0  59170-3 0  9993
2 40042  98.0940 206.1596 0008838 112.4852 247.7325 15.33627611655237
TIGRISAT                
1 40043U 14033AK  26178.89554799  .00001789  00000+0  21051-3 0  9998
2 40043  97.7842 328.6625 0050047  40.8711 319.6239 14.85199092647210
AEROCUBE 6A             
1 40045U 14033AM  26178.70999943  .00004432  00000+0  37301-3 0  9997
2 40045  97.7225 345.5484 0038121 341.3669  18.6155 14.98194120648190
AEROCUBE 6B             
1 40046U 14033AN  26178.70208137  .00004452  00000+0  36081-3 0  9992
2 40046  97.7223 345.3541 0037707 332.4470  27.4753 14.99658257648336
CANX-4                  
1 40055U 14034C   26178.89236505  .00000893  00000+0  12176-3 0  9997
2 40055  98.3109  54.5978 0012347 342.9088  17.1706 14.81282775646110
CANX-5                  
1 40056U 14034D   26178.89067351  .00000898  00000+0  12241-3 0  9997
2 40056  98.3112  54.6403 0012346 343.1631  16.9169 14.81300102636928
UKUBE-1                 
1 40074U 14037F   26178.81154308  .00008107  00000+0  45427-3 0  9994
2 40074  98.4235 183.2006 0003157 115.2470 244.9086 15.13712856650164
BRITE-PL2 (HEWELIUSZ)   
1 40119U 14049B   26178.88408118  .00001612  00000+0  15402-3 0  9999
2 40119  97.9108 290.9670 0015311  75.8215 284.4705 14.94632612643048
AEROCUBE 5C             
1 40965U 15058B   26178.49683534  .00002089  00000+0  19166-3 0  9993
2 40965  64.7663 230.5167 0131269  59.2481 302.1481 14.91493336367191
AEROCUBE 7              
1 40966U 15058C   26178.79797288  .00003235  00000+0  26368-3 0  9995
2 40966  64.7606 211.5791 0121001  57.4877 303.7861 14.95784228367548
FOX-1A (AO-85)          
1 40967U 15058D   26178.88313409  .00002022  00000+0  18843-3 0  9997
2 40967  64.7747 245.7432 0131104  52.4287 308.8647 14.91012568115165
SINOD-D 1               
1 40968U 15058E   26178.84149961  .00003069  00000+0  25042-3 0  9995
2 40968  64.7737 225.5462 0119762  48.8741 312.2636 14.95964267118250
SNAP-3 ALICE            
1 40970U 15058G   26178.93451699  .00146840  00000+0  15685-2 0  9998
2 40970  64.7504  66.7138 0024441   4.5324 355.6040 15.62838686118569
LMRST-SAT               
1 40971U 15058H   26178.90826510  .00001913  00000+0  18025-3 0  9997
2 40971  64.7753 242.0236 0132709  54.4415 306.8983 14.90629802115150
SNAP-3 EDDIE            
1 40972U 15058J   26178.85205988  .00129925  00000+0  13293-2 0  9997
2 40972  64.7419  57.6443 0025136   8.0537 352.1009 15.63968024120696
PROPCUBE 3              
1 40973U 15058K   26178.51595409  .00002738  00000+0  23247-3 0  9994
2 40973  64.7670 220.2636 0124619  55.8399 305.4457 14.94306371116349
BISONSAT                
1 40974U 15058L   26178.91556813  .00015128  00000+0  72076-3 0  9996
2 40974  64.7571 138.9510 0080301  42.9311 317.8043 15.16461707117244
SNAP-3 JIMI             
1 40975U 15058M   26178.37396855  .00006192  00000+0  42414-3 0  9999
2 40975  64.7629 187.5396 0106706  51.2733 309.7864 15.02391842115752
PROPCUBE 1 (FLORA)      
1 40976U 15058N   26178.94018537  .00001915  00000+0  18747-3 0  9991
2 40976  64.7748 261.9087 0131347  56.7296 304.6319 14.89264259117860
SINOD-D 3               
1 40977U 15058P   26178.88396431  .00002700  00000+0  23341-3 0  9996
2 40977  64.7719 242.4155 0119874  53.8963 307.3178 14.94072286116358
HORYU-4                 
1 41340U 16012D   26178.90379394  .01197626  86952-3  11544-2 0  9992
2 41340  30.9819 359.6428 0009316 334.8747  25.1465 16.10615063572530
RAVAN                   
1 41849U 16067B   26178.66051429  .00050007  00000+0  72516-3 0  9998
2 41849  97.9876  69.4492 0002486 353.7027   6.4194 15.55697713529329
CELTEE 1                
1 41850U 16067C   26178.87360568  .00004942  00000+0  23454-3 0  9994
2 41850  98.0664  46.1697 0001536 128.1826 231.9546 15.19782402527507
OPTICUBE 04             
1 41851U 16067D   26178.55151171  .00002471  00000+0  15727-3 0  9997
2 41851  98.0691  31.3758 0016990  83.4505 276.8657 15.09700786526738
AEROCUBE 8D             
1 41852U 16067E   26178.59208152  .00007517  00000+0  30860-3 0  9995
2 41852  98.0675  49.5552 0005019  98.5872 261.5933 15.24537080527650
AEROCUBE 8C             
1 41853U 16067F   26178.54973403  .00007079  00000+0  28864-3 0  9993
2 41853  98.0546  46.7236 0006008  40.3988 319.7693 15.24787957527646
CORVUS BC2              
1 42846U 17042X   26178.69057003  .00002608  00000+0  18086-3 0  9993
2 42846  97.4068 339.6328 0014617  78.2935 281.9932 15.06358816488644
CORVUS BC1              
1 42847U 17042Y   26178.68402011  .00002834  00000+0  19546-3 0  9999
2 42847  97.4094 340.4473 0012982  57.0269 303.2205 15.06521528488679
MAKERSAT 0              
1 43016U 17073D   26178.17177366  .00018824  00000+0  50687-3 0  9995
2 43016  97.4619  60.7702 0104795 236.8226 122.2932 15.32414292467998
